ZK-1A R/B               
1 67002U 25292K   25364.13568681  .00189305  11945-4  84291-3 0  9990
2 67002  97.7196  78.3741 0199996 301.5812  56.6055 15.60328339  3100
STARLINK-35660          
1 67003U 25293A   25364.16670139 -.01570777  00000+0 -21797-1 0  9992
2 67003  69.9997 273.7964 0003314 267.1985  74.2261 15.60003495  2966
STARLINK-35913          
1 67004U 25293B   25364.16670139 -.01568998  00000+0 -21779-1 0  9995
2 67004  69.9997 273.7940 0003389 267.4443  75.9752 15.59991752  2968
STARLINK-36148          
1 67005U 25293C   25364.16670139 -.01578138  00000+0 -21929-1 0  9990
2 67005  69.9999 273.7916 0003460 270.3327  75.1070 15.59982318  2961
STARLINK-36156          
1 67006U 25293D   25364.16670139 -.01576120  00000+0 -21941-1 0  9994
2 67006  70.0000 273.7864 0003381 270.4160  79.2309 15.59931370  2960
STARLINK-36123          
1 67007U 25293E   25364.16670139 -.01577900  00000+0 -21953-1 0  9995
2 67007  69.9999 273.7889 0003369 269.5912  78.0042 15.59950260  2962
STARLINK-36163          
1 67008U 25293F   25364.16670139 -.01571667  00000+0 -21907-1 0  9999
2 67008  70.0001 273.7839 0003397 269.0996  82.7552 15.59888846  2961
STARLINK-36118          
1 67009U 25293G   25364.16670139 -.01578564  00000+0 -22031-1 0  9992
2 67009  69.9999 273.7815 0003409 268.3468  85.5954 15.59870139  2906
STARLINK-36189          
1 67010U 25293H   25364.16670139 -.01569617  00000+0 -21919-1 0  9997
2 67010  69.9996 273.7764 0003450 266.9476  91.0565 15.59835031  2965
STARLINK-36167          
1 67011U 25293J   25364.16670139 -.01566997  00000+0 -21859-1 0  9999
2 67011  69.9998 273.7791 0003441 267.2948  88.6135 15.59857410  2900
STARLINK-36175          
1 67012U 25293K   25364.16670139 -.01563990  00000+0 -21841-1 0  9991
2 67012  69.9997 273.7739 0003467 267.5366  92.4601 15.59822114  2901
STARLINK-35856          
1 67013U 25293L   25364.16670139 -.01573370  00000+0 -22005-1 0  9998
2 67013  69.9998 273.7716 0003418 267.7013  94.3821 15.59803128  2904
