CCSDS_OMM_VERS = 2.0
CREATION_DATE  = 
ORIGINATOR     = 

OBJECT_NAME    = ZK-1A R/B
OBJECT_ID      = 2025-292K
CENTER_NAME    = EARTH
REF_FRAME      = TEME
TIME_SYSTEM    = UTC
MEAN_ELEMENT_THEORY = SGP/SGP4

EPOCH          = 2025-12-30T03:15:23.340384
MEAN_MOTION    = 15.60328339
ECCENTRICITY   = .0199996
INCLINATION    = 97.7196
RA_OF_ASC_NODE = 78.3741
ARG_OF_PERICENTER = 301.5812
MEAN_ANOMALY   = 56.6055

EPHEMERIS_TYPE = 0
CLASSIFICATION_TYPE = U
NORAD_CAT_ID   = 67002
ELEMENT_SET_NO = 999
REV_AT_EPOCH   = 310
BSTAR          = .84291E-3
MEAN_MOTION_DOT = .189305E-2
MEAN_MOTION_DDOT = .11945E-4

CCSDS_OMM_VERS = 2.0
CREATION_DATE  = 
ORIGINATOR     = 

OBJECT_NAME    = STARLINK-35660
OBJECT_ID      = 2025-293A
CENTER_NAME    = EARTH
REF_FRAME      = TEME
TIME_SYSTEM    = UTC
MEAN_ELEMENT_THEORY = SGP/SGP4

EPOCH          = 2025-12-30T04:00:03.000096
MEAN_MOTION    = 15.60003495
ECCENTRICITY   = .0003314
INCLINATION    = 69.9997
RA_OF_ASC_NODE = 273.7964
ARG_OF_PERICENTER = 267.1985
MEAN_ANOMALY   = 74.2261

EPHEMERIS_TYPE = 0
CLASSIFICATION_TYPE = U
NORAD_CAT_ID   = 67003
ELEMENT_SET_NO = 999
REV_AT_EPOCH   = 296
BSTAR          = -.21797E-1
MEAN_MOTION_DOT = -.1570777E-1
MEAN_MOTION_DDOT = 0

CCSDS_OMM_VERS = 2.0
CREATION_DATE  = 
ORIGINATOR     = 

OBJECT_NAME    = STARLINK-35913
OBJECT_ID      = 2025-293B
CENTER_NAME    = EARTH
REF_FRAME      = TEME
TIME_SYSTEM    = UTC
MEAN_ELEMENT_THEORY = SGP/SGP4

EPOCH          = 2025-12-30T04:00:03.000096
MEAN_MOTION    = 15.59991752
ECCENTRICITY   = .0003389
INCLINATION    = 69.9997
RA_OF_ASC_NODE = 273.7940
ARG_OF_PERICENTER = 267.4443
MEAN_ANOMALY   = 75.9752

EPHEMERIS_TYPE = 0
CLASSIFICATION_TYPE = U
NORAD_CAT_ID   = 67004
ELEMENT_SET_NO = 999
REV_AT_EPOCH   = 296
BSTAR          = -.21779E-1
MEAN_MOTION_DOT = -.1568998E-1
MEAN_MOTION_DDOT = 0

CCSDS_OMM_VERS = 2.0
CREATION_DATE  = 
ORIGINATOR     = 

OBJECT_NAME    = STARLINK-36148
OBJECT_ID      = 2025-293C
CENTER_NAME    = EARTH
REF_FRAME      = TEME
TIME_SYSTEM    = UTC
MEAN_ELEMENT_THEORY = SGP/SGP4

EPOCH          = 2025-12-30T04:00:03.000096
MEAN_MOTION    = 15.59982318
ECCENTRICITY   = .000346
INCLINATION    = 69.9999
RA_OF_ASC_NODE = 273.7916
ARG_OF_PERICENTER = 270.3327
MEAN_ANOMALY   = 75.1070

EPHEMERIS_TYPE = 0
CLASSIFICATION_TYPE = U
NORAD_CAT_ID   = 67005
ELEMENT_SET_NO = 999
REV_AT_EPOCH   = 296
BSTAR          = -.21929E-1
MEAN_MOTION_DOT = -.1578138E-1
MEAN_MOTION_DDOT = 0

CCSDS_OMM_VERS = 2.0
CREATION_DATE  = 
ORIGINATOR     = 

OBJECT_NAME    = STARLINK-36156
OBJECT_ID      = 2025-293D
CENTER_NAME    = EARTH
REF_FRAME      = TEME
TIME_SYSTEM    = UTC
MEAN_ELEMENT_THEORY = SGP/SGP4

EPOCH          = 2025-12-30T04:00:03.000096
MEAN_MOTION    = 15.59931370
ECCENTRICITY   = .0003381
INCLINATION    = 70.0000
RA_OF_ASC_NODE = 273.7864
ARG_OF_PERICENTER = 270.4160
MEAN_ANOMALY   = 79.2309

EPHEMERIS_TYPE = 0
CLASSIFICATION_TYPE = U
NORAD_CAT_ID   = 67006
ELEMENT_SET_NO = 999
REV_AT_EPOCH   = 296
BSTAR          = -.21941E-1
MEAN_MOTION_DOT = -.157612E-1
MEAN_MOTION_DDOT = 0

CCSDS_OMM_VERS = 2.0
CREATION_DATE  = 
ORIGINATOR     = 

OBJECT_NAME    = STARLINK-36123
OBJECT_ID      = 2025-293E
CENTER_NAME    = EARTH
REF_FRAME      = TEME
TIME_SYSTEM    = UTC
MEAN_ELEMENT_THEORY = SGP/SGP4

EPOCH          = 2025-12-30T04:00:03.000096
MEAN_MOTION    = 15.59950260
ECCENTRICITY   = .0003369
INCLINATION    = 69.9999
RA_OF_ASC_NODE = 273.7889
ARG_OF_PERICENTER = 269.5912
MEAN_ANOMALY   = 78.0042

EPHEMERIS_TYPE = 0
CLASSIFICATION_TYPE = U
NORAD_CAT_ID   = 67007
ELEMENT_SET_NO = 999
REV_AT_EPOCH   = 296
BSTAR          = -.21953E-1
MEAN_MOTION_DOT = -.15779E-1
MEAN_MOTION_DDOT = 0

CCSDS_OMM_VERS = 2.0
CREATION_DATE  = 
ORIGINATOR     = 

OBJECT_NAME    = STARLINK-36163
OBJECT_ID      = 2025-293F
CENTER_NAME    = EARTH
REF_FRAME      = TEME
TIME_SYSTEM    = UTC
MEAN_ELEMENT_THEORY = SGP/SGP4

EPOCH          = 2025-12-30T04:00:03.000096
MEAN_MOTION    = 15.59888846
ECCENTRICITY   = .0003397
INCLINATION    = 70.0001
RA_OF_ASC_NODE = 273.7839
ARG_OF_PERICENTER = 269.0996
MEAN_ANOMALY   = 82.7552

EPHEMERIS_TYPE = 0
CLASSIFICATION_TYPE = U
NORAD_CAT_ID   = 67008
ELEMENT_SET_NO = 999
REV_AT_EPOCH   = 296
BSTAR          = -.21907E-1
MEAN_MOTION_DOT = -.1571667E-1
MEAN_MOTION_DDOT = 0

CCSDS_OMM_VERS = 2.0
CREATION_DATE  = 
ORIGINATOR     = 

OBJECT_NAME    = STARLINK-36118
OBJECT_ID      = 2025-293G
CENTER_NAME    = EARTH
REF_FRAME      = TEME
TIME_SYSTEM    = UTC
MEAN_ELEMENT_THEORY = SGP/SGP4

EPOCH          = 2025-12-30T04:00:03.000096
MEAN_MOTION    = 15.59870139
ECCENTRICITY   = .0003409
INCLINATION    = 69.9999
RA_OF_ASC_NODE = 273.7815
ARG_OF_PERICENTER = 268.3468
MEAN_ANOMALY   = 85.5954

EPHEMERIS_TYPE = 0
CLASSIFICATION_TYPE = U
NORAD_CAT_ID   = 67009
ELEMENT_SET_NO = 999
REV_AT_EPOCH   = 290
BSTAR          = -.22031E-1
MEAN_MOTION_DOT = -.1578564E-1
MEAN_MOTION_DDOT = 0

CCSDS_OMM_VERS = 2.0
CREATION_DATE  = 
ORIGINATOR     = 

OBJECT_NAME    = STARLINK-36189
OBJECT_ID      = 2025-293H
CENTER_NAME    = EARTH
REF_FRAME      = TEME
TIME_SYSTEM    = UTC
MEAN_ELEMENT_THEORY = SGP/SGP4

EPOCH          = 2025-12-30T04:00:03.000096
MEAN_MOTION    = 15.59835031
ECCENTRICITY   = .000345
INCLINATION    = 69.9996
RA_OF_ASC_NODE = 273.7764
ARG_OF_PERICENTER = 266.9476
MEAN_ANOMALY   = 91.0565

EPHEMERIS_TYPE = 0
CLASSIFICATION_TYPE = U
NORAD_CAT_ID   = 67010
ELEMENT_SET_NO = 999
REV_AT_EPOCH   = 296
BSTAR          = -.21919E-1
MEAN_MOTION_DOT = -.1569617E-1
MEAN_MOTION_DDOT = 0

CCSDS_OMM_VERS = 2.0
CREATION_DATE  = 
ORIGINATOR     = 

OBJECT_NAME    = STARLINK-36167
OBJECT_ID      = 2025-293J
CENTER_NAME    = EARTH
REF_FRAME      = TEME
TIME_SYSTEM    = UTC
MEAN_ELEMENT_THEORY = SGP/SGP4

EPOCH          = 2025-12-30T04:00:03.000096
MEAN_MOTION    = 15.59857410
ECCENTRICITY   = .0003441
INCLINATION    = 69.9998
RA_OF_ASC_NODE = 273.7791
ARG_OF_PERICENTER = 267.2948
MEAN_ANOMALY   = 88.6135

EPHEMERIS_TYPE = 0
CLASSIFICATION_TYPE = U
NORAD_CAT_ID   = 67011
ELEMENT_SET_NO = 999
REV_AT_EPOCH   = 290
BSTAR          = -.21859E-1
MEAN_MOTION_DOT = -.1566997E-1
MEAN_MOTION_DDOT = 0

CCSDS_OMM_VERS = 2.0
CREATION_DATE  = 
ORIGINATOR     = 

OBJECT_NAME    = STARLINK-36175
OBJECT_ID      = 2025-293K
CENTER_NAME    = EARTH
REF_FRAME      = TEME
TIME_SYSTEM    = UTC
MEAN_ELEMENT_THEORY = SGP/SGP4

EPOCH          = 2025-12-30T04:00:03.000096
MEAN_MOTION    = 15.59822114
ECCENTRICITY   = .0003467
INCLINATION    = 69.9997
RA_OF_ASC_NODE = 273.7739
ARG_OF_PERICENTER = 267.5366
MEAN_ANOMALY   = 92.4601

EPHEMERIS_TYPE = 0
CLASSIFICATION_TYPE = U
NORAD_CAT_ID   = 67012
ELEMENT_SET_NO = 999
REV_AT_EPOCH   = 290
BSTAR          = -.21841E-1
MEAN_MOTION_DOT = -.156399E-1
MEAN_MOTION_DDOT = 0

CCSDS_OMM_VERS = 2.0
CREATION_DATE  = 
ORIGINATOR     = 

OBJECT_NAME    = STARLINK-35856
OBJECT_ID      = 2025-293L
CENTER_NAME    = EARTH
REF_FRAME      = TEME
TIME_SYSTEM    = UTC
MEAN_ELEMENT_THEORY = SGP/SGP4

EPOCH          = 2025-12-30T04:00:03.000096
MEAN_MOTION    = 15.59803128
ECCENTRICITY   = .0003418
INCLINATION    = 69.9998
RA_OF_ASC_NODE = 273.7716
ARG_OF_PERICENTER = 267.7013
MEAN_ANOMALY   = 94.3821

EPHEMERIS_TYPE = 0
CLASSIFICATION_TYPE = U
NORAD_CAT_ID   = 67013
ELEMENT_SET_NO = 999
REV_AT_EPOCH   = 290
BSTAR          = -.22005E-1
MEAN_MOTION_DOT = -.157337E-1
MEAN_MOTION_DDOT = 0

